{"type":"Topology","arcs":[[[78312,51288],[20,55],[84,-51],[26,54],[-16,138],[-89,237],[-12,73],[160,565],[75,102],[41,3],[50,-64],[32,-113],[13,-38],[-34,-140],[6,-42],[34,-18],[41,-12],[26,42],[34,90],[62,64],[122,-4],[45,26],[115,-9],[203,90],[212,-34],[110,-117],[301,95],[16,101],[-23,171],[29,45],[153,-29],[93,-77],[55,-174],[6,-100],[-38,-23],[-129,37],[-83,-36],[-173,-259],[-48,-90],[-49,-153],[-61,-142],[-49,13],[-138,-107],[-12,-47],[12,-115],[-55,-50],[-11,-63],[41,-154],[-13,-95],[-34,-44],[-80,-42],[-57,27],[-88,45],[-71,59],[-119,-39],[-36,-52],[-78,-185],[6,-110],[70,-73],[39,-19],[21,-62],[19,-88],[4,-126],[-37,-16],[-66,30],[24,93],[-48,151],[-52,63],[-100,54],[-80,130],[-38,97],[-61,48],[-74,13],[-142,40],[-106,124],[-1,175],[1,62]],[[78289,50564],[80,-39],[56,-10],[23,-75],[35,-63],[-13,-71],[-89,27],[-83,47],[-44,112],[35,72]],[[74935,48169],[69,-15],[4,-51],[-19,-27],[-50,3],[-29,42],[25,48]],[[74162,47895],[36,142],[132,105],[25,-66],[-107,-69],[-25,-126],[41,-72],[-6,-81],[-63,0],[-33,167]],[[72749,48215],[42,98],[-8,102],[-22,56],[101,5],[45,78],[31,-10],[33,-70],[83,-11],[107,76],[27,47],[5,53],[91,73],[38,0],[1,-49],[23,-45],[-35,-63],[-30,-33],[32,-83],[-13,-291],[-37,-78],[8,-104],[141,-226],[-653,357],[-10,118]],[[71051,45988],[1,2],[24,7],[9,4],[15,7],[24,7],[7,1],[15,2],[23,1],[11,-4],[12,-7],[12,-12],[16,-16],[7,-13],[2,-11],[1,-1],[1,-5],[1,-4],[2,-5],[4,-8],[3,-4],[2,-1],[1,-2],[3,-2],[14,-14],[1,-3],[-2,-2],[-8,2],[-23,13],[-24,13],[-51,22],[-4,1],[-3,1],[-16,6],[-19,8],[-36,10],[-24,4],[-1,3]],[[31983,80789],[2,4],[101,174],[3,5],[29,201],[-12,131],[-14,160],[0,5],[1,63],[22,130],[5,32],[1,7],[72,206],[6,18],[9,8],[85,73],[62,53],[159,44],[105,29],[99,-62],[34,0],[70,50],[87,5],[24,-33],[-32,-57],[35,-59],[2,-53],[-16,-89],[0,-9],[0,-46],[-60,-86],[-20,-116],[0,-2],[-4,-32],[-51,-77],[-1,-3],[-18,-67],[33,-199],[-11,-22],[-34,-70],[-23,-48],[-2,-4],[-26,-31],[-2,-2],[-33,-41],[-96,-16],[-61,-96],[-5,-6],[-73,-90],[-2,-2],[-108,-47],[-20,-9],[-100,20],[-61,-22],[-31,-27],[-54,-2],[-99,-41],[23,148]],[[31302,78522],[158,87],[107,93],[147,26],[248,108],[113,68],[106,28],[24,-31],[12,-17],[-27,-63],[-114,-67],[-17,-17],[-31,-31],[-32,-43],[-5,-7],[-31,-27],[-3,-3],[-61,-4],[-31,-117],[-45,-14],[-93,-29],[-44,-17],[-83,-30],[-60,20],[-186,61],[-52,26]],[[30530,81350],[28,35],[47,53],[71,32],[30,-12],[-4,-51],[-50,-65],[0,-45],[0,0],[54,-65],[130,-94],[37,-36],[62,-48],[-7,-101],[-14,-115],[-85,-101],[-76,-62],[-58,6],[-4,0],[-1,8],[-18,72],[-42,153],[-17,151],[-8,164],[-39,12],[-30,27],[-6,82]],[[30328,81911],[11,72],[6,57],[16,47],[23,11],[1,1],[38,-49],[9,-69],[-23,-117],[-59,-62],[-3,-3],[-15,64],[-4,48]],[[29877,80814],[41,47],[49,25],[117,1],[44,-18],[6,-37],[39,-44],[1,-59],[-9,-69],[-46,-18],[-40,-56],[-10,-3],[-92,-29],[-61,70],[-25,89],[-43,77],[29,24]],[[29513,81353],[50,27],[16,43],[52,58],[45,-20],[42,-34],[7,-32],[-43,-75],[23,-71],[-22,-34],[-28,-22],[-9,1],[-51,9],[-72,77],[-10,73]],[[29491,79352],[48,62],[49,79],[117,191],[12,19],[110,44],[144,4],[103,53],[118,87],[326,108],[243,21],[113,33],[99,63],[119,29],[55,34],[73,-16],[69,-65],[85,-46],[52,-57],[7,-9],[-25,-67],[-43,-41],[-29,-27],[-74,-93],[-26,-53],[-2,-5],[-2,-9],[-22,-99],[0,-1],[-18,-55],[-51,-8],[-89,14],[-46,11],[-65,-37],[-37,-133],[18,-96],[30,-77],[81,-44],[-41,-38],[-52,-22],[-106,-15],[2,27],[42,66],[-5,9],[-17,32],[-32,26],[-53,43],[-62,56],[-91,17],[-43,-14],[-57,-19],[-28,-35],[-18,-24],[-8,-10],[-63,-32],[-134,-10],[-39,21],[-43,69],[-71,19],[-52,-28],[-8,-48],[-37,-78],[-43,-29],[-141,-51],[-86,-23],[-56,-7],[-67,34],[-87,105],[-54,95],[8,50]],[[29171,79963],[76,66],[53,123],[56,55],[7,4],[74,41],[45,78],[158,73],[79,2],[38,-27],[0,-155],[-41,-44],[-48,-51],[-94,-41],[-7,-3],[-42,-46],[-21,-55],[-105,-78],[-74,-29],[-63,-47],[-12,18],[-37,53],[-42,63]],[[28979,81299],[15,110],[5,12],[35,90],[2,6],[70,37],[45,-6],[33,-4],[172,43],[91,97],[7,7],[82,29],[5,2],[48,-3],[-48,-87],[-128,-94],[-7,-2],[-47,-11],[-15,-3],[-60,-46],[-22,-108],[-10,-25],[-7,-18],[-7,-15],[-73,-136],[0,-72],[-5,-26],[-17,6],[-160,56],[-1,27],[-3,134]],[[28851,78719],[67,46],[134,66],[127,47],[42,-5],[48,-20],[48,-56],[-15,-57],[-17,-22],[-44,-66],[-59,-19],[-57,-12],[-30,-32],[-72,-14],[-93,16],[-64,60],[-14,14],[0,20],[-1,34]],[[28731,80521],[5,54],[78,181],[45,75],[73,64],[117,-20],[95,-2],[51,-59],[73,-51],[25,-18],[0,-21],[-65,-23],[-76,-73],[-81,-79],[-82,-54],[-33,-59],[-165,0],[-63,43],[3,42]],[[28479,82176],[29,11],[34,-27],[28,-21],[43,-83],[6,-105],[-8,-25],[-14,-51],[-63,-19],[-44,62],[-2,49],[-22,164],[13,45]],[[28052,77757],[24,101],[42,185],[5,21],[23,45],[57,111],[31,60],[118,136],[60,49],[76,12],[47,-20],[81,-120],[-6,-23],[-21,-75],[-135,-226],[-149,-178],[-100,-80],[-109,-41],[-48,26],[4,17]],[[28025,79794],[43,44],[78,80],[8,8],[80,83],[118,93],[30,-11],[53,-69],[87,-27],[70,1],[88,1],[47,-55],[5,-69],[82,-124],[146,-140],[31,-90],[17,-47],[26,-129],[2,-13],[-4,-65],[-37,-16],[-19,-8],[-184,-6],[-5,-1],[-224,-14],[-41,-14],[-8,-1],[-112,-12],[-109,174],[-47,74],[-75,46],[-14,127],[-97,85],[-35,95]],[[27871,81179],[46,25],[11,22],[26,55],[60,37],[10,6],[85,41],[23,-18],[1,-1],[55,-90],[4,-7],[38,-39],[54,6],[18,-90],[46,-36],[7,-6],[25,-90],[-22,-87],[-28,-30],[-33,-34],[-39,-49],[-2,-50],[0,-2],[-13,-19],[-23,25],[-65,-17],[-63,49],[-103,5],[-37,48],[-13,75],[-23,45],[-13,65],[7,110],[-39,51]],[[27678,76892],[18,20],[52,38],[44,10],[66,16],[43,3],[21,2],[79,27],[112,85],[81,34],[123,2],[134,36],[59,74],[10,109],[90,98],[113,86],[489,237],[243,171],[181,185],[122,189],[158,152],[74,29],[124,-11],[59,-21],[190,-249],[10,-13],[94,-81],[136,-69],[2,-5],[13,-39],[-17,-16],[-47,-14],[-15,-4],[-45,-66],[-82,-33],[-72,-6],[-150,-13],[-165,-15],[-4,-1],[-259,-120],[-118,-61],[-148,-38],[-34,-13],[-230,-94],[-39,-126],[20,-130],[69,-105],[47,-12],[25,20],[123,-14],[31,-25],[10,-59],[-22,-48],[-44,-54],[-69,-16],[-79,-7],[-154,-51],[-28,-9],[-188,-38],[-66,1],[-78,39],[-31,6],[-89,15],[-99,-66],[-145,-174],[-60,-72],[-79,-10],[-42,-27],[-56,-93],[-91,-72],[-51,-32],[-40,-14],[-60,-20],[-124,-9],[-97,4],[9,49],[-27,62],[20,59],[75,102],[-13,89],[-31,63],[-73,88],[-8,65]],[[27501,80265],[62,15],[26,27],[14,77],[112,17],[56,-48],[-59,-44],[-26,-58],[16,-46],[-75,-16],[-44,-14],[-38,10],[-56,29],[12,51]],[[26529,80587],[36,15],[28,-39],[33,-54],[104,-29],[91,26],[69,-25],[3,-42],[-42,-39],[-8,-42],[-20,-38],[-44,0],[-88,85],[-52,40],[-80,29],[-36,70],[6,43]],[[25163,80490],[150,56],[195,40],[75,-17],[99,52],[64,58],[-8,83],[14,37],[87,-18],[18,-72],[16,-69],[54,-75],[5,-39],[-44,-21],[-12,-30],[-43,-21],[-42,-25],[2,-79],[35,-111],[18,-80],[-21,-77],[-191,-8],[-87,27],[-117,-48],[-53,13],[-26,53],[-39,93],[-40,33],[-50,-17],[-36,6],[-47,138],[24,118]],[[24427,79751],[28,29],[19,-35],[-13,-41],[-15,-20],[-22,23],[3,44]],[[0,56176],[17,90],[-2,60],[-13,40],[7,54],[5,37],[0,1],[18,34],[17,118],[5,40],[20,83],[47,110],[27,173],[19,246],[70,139],[2,9],[-23,45],[38,219],[-11,56],[7,43],[46,55],[41,29],[121,16],[33,13],[5,9],[2,58],[20,21],[77,7],[26,15],[68,50],[69,6],[23,11],[39,52],[125,97],[47,12],[41,26],[60,59],[18,42],[18,37],[52,32],[172,175],[13,14],[43,158],[1,5],[22,166],[29,94],[13,39],[58,93],[48,50],[87,58],[37,49],[16,47],[-2,83],[-27,76],[-12,21],[-13,23],[-36,113],[-3,11],[-11,43],[7,52],[46,66],[29,27],[136,96],[48,13],[73,87],[10,23],[35,175],[7,32],[-5,76],[32,85],[170,281],[114,141],[64,58],[58,22],[57,5],[168,114],[31,20],[96,44],[12,20],[-14,62],[8,20],[77,75],[126,106],[16,14],[46,27],[224,2],[9,25],[-22,117],[2,19],[7,5],[8,6],[33,8],[93,-40],[21,5],[66,45],[111,-12],[46,38],[33,27],[77,48],[163,17],[126,80],[75,33],[68,1],[112,51],[119,12],[4,0],[10,11],[18,86],[-11,66],[11,130],[18,19],[37,19],[105,138],[95,73],[46,24],[13,3],[53,14],[33,-5],[34,-10],[190,-60],[153,-80],[84,6],[68,-34],[88,-18],[45,15],[65,44],[42,57],[2,14],[-30,23],[-10,16],[-2,21],[0,1],[-3,25],[27,50],[79,43],[41,48],[-3,58],[9,29],[17,48],[27,32],[70,124],[-1,47],[28,79],[88,90],[93,54],[92,40],[12,5],[132,9],[32,-11],[198,-122],[8,-5],[144,-45],[119,-51],[103,-14],[22,-3],[15,-2],[55,5],[82,41],[10,10],[13,13],[-4,36],[4,52],[10,31],[38,32],[28,36],[7,20],[17,108],[-16,114],[2,37],[29,44],[36,84],[4,36],[39,130],[32,59],[41,45],[25,17],[113,56],[36,12],[48,16],[82,28],[107,10],[61,25],[-1,71],[8,636],[-3,774],[0,5],[0,168],[0,2],[-2,237],[4,797],[-1,349],[7,784],[1,131],[0,51],[3,114],[0,50],[-1,119],[1,15],[0,84],[-2,46],[0,166],[0,18],[1,1524],[1,65],[1,199],[3,838],[2,301],[5,151],[1,516],[3,1038],[0,82],[0,167],[1,363],[-2,164],[-4,377],[-2,145],[0,2],[0,48],[12,38],[52,-14],[4,-81],[11,-45],[33,-26],[69,-4],[54,-22],[21,-82],[29,-38],[61,6],[83,109],[41,29],[186,-170],[91,14],[94,52],[29,-3],[37,-3],[94,-50],[53,2],[70,36],[63,55],[9,29],[0,1],[-7,34],[-1,6],[-43,104],[18,40],[61,59],[92,116],[65,40],[81,23],[1,0],[50,57],[20,52],[-5,70],[-19,29],[-68,60],[-204,17],[-88,39],[-7,75],[13,27],[41,34],[56,31],[54,64],[24,90],[31,23],[135,-14],[61,9],[16,8],[76,40],[160,-72],[86,-14],[31,14],[20,50],[46,117],[-27,52],[1,116],[71,88],[167,96],[114,67],[111,9],[11,0],[236,2],[240,-237],[86,-85],[290,-285],[117,-115],[122,-60],[59,-28],[66,44],[55,-17],[39,6],[268,-235],[154,-91],[37,-22],[146,-67],[6,-3],[123,-30],[126,-17],[148,25],[20,3],[53,9],[88,23],[433,114],[175,22],[91,11],[86,11],[35,5],[227,-48],[118,4],[150,5],[70,14],[194,40],[130,26],[109,53],[307,149],[119,57],[10,4],[87,31],[121,44],[486,174],[98,30],[565,174],[8,2],[101,50],[179,90],[137,69],[306,142],[93,12],[124,44],[149,-21],[152,-11],[1,0],[188,-16],[344,48],[150,68],[96,97],[294,40],[275,79],[141,54],[64,73],[5,1],[98,23],[1,1],[30,6],[64,90],[93,44],[32,75],[37,12],[44,-6],[20,-35],[46,-18],[89,-18],[7,3],[51,19],[13,5],[10,4],[82,-1],[128,33],[8,2],[106,77],[114,167],[184,184],[9,5],[94,49],[206,109],[166,63],[8,0],[8,1],[141,3],[19,43],[3,9],[62,2],[20,-3],[95,-14],[124,24],[121,52],[78,77],[239,338],[78,64],[80,37],[127,18],[121,79],[123,158],[42,55],[38,49],[91,0],[-27,-98],[-36,-46],[-68,-24],[-56,-47],[-30,-89],[-62,-101],[-48,-77],[58,-86],[130,-100],[21,-10],[137,-64],[41,2],[91,6],[9,0],[21,62],[-4,86],[22,35],[61,5],[81,11],[55,40],[23,85],[2,5],[47,129],[54,52],[72,-13],[18,-38],[-20,-82],[-22,-86],[8,-14],[12,-21],[1,-1],[1,0],[2,-1],[148,-47],[5,-2],[127,7],[106,19],[118,70],[37,329],[21,28],[16,22],[30,3],[102,13],[79,-28],[14,-10],[64,-48],[11,-9],[94,18],[107,36],[15,13],[158,129],[43,78],[6,113],[22,57],[52,38],[86,65],[65,48],[39,18],[72,33],[73,33],[84,-4],[48,29],[16,16],[123,127],[144,282],[70,46],[47,-2],[11,-7],[125,-88],[1,-1],[79,-4],[74,-39],[158,-65],[78,-12],[43,-7],[105,37],[16,67],[53,75],[109,61],[147,43],[78,49],[31,33],[18,114],[112,55],[95,27],[106,-7],[67,-36],[54,-28],[96,-18],[23,-4],[79,-64],[32,-95],[-17,-127],[6,-99],[69,-61],[131,-28],[64,63],[60,60],[76,-9],[102,-64],[86,-132],[34,-105],[-3,-152],[37,-55],[102,-19],[64,4],[176,-177],[48,-94],[-2,-91],[-49,-55],[-90,-31],[-25,7],[-64,17],[-12,-11],[-26,-24],[5,-40],[8,-72],[-31,-92],[-111,-218],[-2,-1],[-47,-62],[-10,-13],[-7,-6],[-31,-28],[0,-106],[0,-22],[0,-3],[40,-52],[-54,-72],[-56,-56],[5,-56],[-13,-29],[-45,-98],[-17,-38],[-32,-31],[-72,-70],[-12,-11],[-21,-21],[-39,-38],[-20,-93],[-100,-25],[-8,-8],[-50,-48],[-31,-115],[-99,-138],[-112,-14],[-88,23],[-77,-24],[-6,-54],[-37,-16],[-2,-4],[-47,-75],[50,-110],[1,-2],[3,-6],[-19,-52],[-19,-53],[-53,-63],[-3,-4],[-2,-1],[-104,-61],[-21,-13],[-73,-28],[-44,-41],[-3,-73],[25,-95],[67,-166],[104,-258],[143,-259],[84,-153],[7,-13],[-15,-109],[-97,-102],[-36,-38],[-60,-95],[-33,-25],[-21,-17],[-74,-23],[-17,-19],[-35,-40],[-3,-2],[-27,-30],[-20,-23],[5,-31],[-23,-19],[-8,-7],[-40,13],[-121,-19],[-66,-30],[-18,-8],[-37,-17],[-27,-13],[-7,-38],[-29,-30],[-16,-15],[-9,-47],[5,-186],[-10,-38],[-61,-106],[-1,-104],[-12,-55],[-35,-55],[-30,-52],[-29,-80],[-60,-58],[-68,-116],[-145,-96],[12,-59],[-3,-39],[15,-32],[14,-41],[-15,-34],[38,-46],[46,5],[94,-35],[53,-20],[9,-3],[35,-12],[116,-41],[112,-6],[52,13],[4,2],[0,51],[65,48],[74,54],[13,10],[74,55],[4,2],[6,5],[29,18],[29,19],[38,24],[10,7],[58,37],[2,-1],[26,-12],[65,20],[85,23],[432,222],[82,57],[5,4],[78,21],[188,50],[100,27],[185,107],[139,94],[24,22],[172,159],[1,1],[98,94],[135,67],[-25,79],[-88,76],[-195,-64],[-9,23],[179,146],[54,13],[162,-24],[258,-59],[12,100],[-116,87],[-257,244],[-3,3],[-107,124],[-131,103],[-18,14],[-36,29],[-68,47],[-46,97],[-5,7],[-76,111],[-154,114],[0,0],[-210,45],[-59,12],[12,42],[88,-3],[44,-7],[176,-32],[115,-96],[91,-122],[89,-125],[64,-63],[51,-50],[45,-44],[168,-165],[163,-145],[258,-229],[141,-125],[882,-726],[550,-430],[90,-58],[208,-136],[73,-47],[111,-45],[42,-16],[106,-32],[7,-2],[2,1],[132,84],[27,17],[4,2],[167,55],[28,-2],[63,-4],[113,-74],[187,-122],[58,-37],[67,-44],[21,-11],[311,-161],[145,-55],[257,82],[19,-18],[14,-34],[14,-105],[1,0],[50,-40],[30,0],[8,-10],[1,-41],[29,-83],[37,-36],[10,-22],[14,-7],[7,7],[5,0],[17,-29],[42,-115],[9,-10],[32,8],[6,-15],[-2,-9],[-9,-7],[-24,0],[-8,-10],[26,-23],[15,0],[12,14],[20,-3],[33,7],[17,3],[20,14],[15,18],[40,20],[21,-20],[24,10],[9,36],[25,14],[20,7],[37,22],[38,11],[11,-9],[0,-18],[20,-1],[12,7],[18,22],[23,3],[8,-8],[5,-28],[16,-4],[16,-3],[23,7],[69,20],[19,12],[6,11],[5,37],[9,12],[21,11],[5,20],[-28,15],[-3,13],[13,27],[15,4],[27,-27],[17,-4],[13,3],[9,1],[16,22],[-5,15],[-25,4],[-19,3],[-12,11],[-4,17],[24,11],[52,9],[22,16],[25,-13],[42,-1],[2,-10],[-11,-16],[25,-1],[18,-22],[19,20],[7,-10],[-3,-15],[-7,-40],[18,-34],[26,-10],[24,20],[30,-2],[3,-5],[2,-12],[24,-25],[17,16],[26,-12],[-24,-34],[9,-30],[33,-17],[39,-10],[7,-41],[0,-4],[-12,-47],[9,-30],[-15,-18],[-16,-20],[14,-32],[-34,-87],[-44,-39],[9,-28],[1,-49],[41,-20],[1,0],[16,16],[14,-10],[40,5],[2,19],[9,9],[15,2],[40,-19],[69,7],[21,23],[12,-11],[18,6],[2,19],[-12,21],[6,10],[25,-12],[94,-38],[30,0],[23,32],[-7,17],[44,12],[7,29],[16,11],[60,-60],[9,-25],[2,-8],[-17,-12],[-26,-4],[-20,-30],[-13,-30],[10,-9],[27,16],[18,-32],[39,-35],[0,-17],[-8,-11],[-21,-19],[-6,-34],[1,-36],[17,-8],[13,40],[30,4],[25,12],[30,-22],[-11,-27],[-2,-23],[30,-19],[33,1],[24,12],[20,22],[68,-1],[50,12],[29,-9],[35,7],[94,34],[62,49],[16,-3],[13,-30],[-21,-60],[-1,-23],[9,-29],[21,-3],[85,32],[24,0],[52,-29],[22,-32],[1,-32],[34,-80],[14,-11],[-13,-29],[6,-20],[29,-52],[12,-16],[23,-11],[15,-27],[1,-67],[22,-45],[29,-36],[1,-2],[51,-32],[27,-16],[32,-16],[13,-40],[-3,-30],[26,1],[22,7],[5,-17],[-11,-19],[0,0],[-34,-25],[-1,-3],[-16,-42],[34,-53],[18,-24],[18,-9],[4,-2],[64,-14],[33,-12],[5,11],[-19,19],[15,5],[26,-23],[3,-28],[-14,-48],[-1,-2],[1,-15],[3,-35],[6,-7],[20,-22],[2,-18],[-20,-67],[5,-66],[24,-6],[1,0],[20,-4],[37,3],[17,-7],[15,9],[8,21],[12,18],[11,-41],[1,-30],[10,-13],[36,-51],[0,-3],[0,-46],[13,-27],[1,-51],[24,-15],[3,-2],[9,-23],[-13,-41],[26,-6],[5,-39],[-9,-36],[16,-49],[-15,-17],[-2,-18],[2,-9],[13,-71],[26,-36],[25,-11],[-6,-23],[13,-22],[-8,-19],[15,-32],[39,-27],[22,-10],[20,-2],[0,-35],[-10,-12],[1,-17],[28,-23],[13,-37],[-6,-11],[6,-24],[7,-9],[26,-8],[14,-16],[-8,-16],[9,-11],[18,-34],[25,-14],[29,-36],[17,-2],[23,-15],[-26,-38],[19,-16],[-11,-9],[-14,-50],[0,0],[11,-56],[35,-16],[16,-15],[-14,-16],[60,-42],[47,-58],[2,-18],[4,-36],[24,0],[-4,-16],[16,0],[1,1],[11,-10],[26,-73],[5,-27],[-3,-53],[-10,-21],[-14,-3],[-22,5],[-21,-32],[-1,-20],[-22,-4],[1,-12],[21,-24],[22,10],[8,-15],[11,-35],[10,-16],[-7,-6],[-2,-32],[-31,-10],[-4,-10],[1,-16],[10,-7],[1716,-451],[795,-209],[15,-4],[137,-36],[117,-24],[23,-7],[1360,-359],[537,-141],[315,-81],[75,-19],[0,0],[889,-228],[386,-107],[1104,-282],[277,-71],[502,-140],[68,-18],[1381,-361],[128,-30],[46,-11],[1266,-335],[6,-2],[746,-192],[24,-6],[165,-46],[2,0],[29,-7],[26,-11],[90,-26],[193,-48],[172,-43],[67,-19],[484,-130],[442,-108],[859,-477],[471,-261],[1,0],[556,-306],[72,-41],[139,-76],[1088,-599],[24,-25],[12,-30],[6,-15],[42,-28],[0,-8],[0,-23],[32,-11],[14,-16],[24,-25],[21,7],[24,-4],[49,-12],[59,-27],[35,-28],[50,-6],[20,1],[8,-30],[26,-12],[14,-18],[-2,-11],[-7,-12],[2,-19],[33,1],[20,17],[30,8],[52,-9],[27,24],[26,15],[34,2],[36,-4],[9,22],[-6,36],[-59,57],[59,66],[58,-30],[21,-30],[8,-26],[17,-5],[12,4],[15,37],[25,32],[68,-15],[8,-11],[-1,-43],[-65,-81],[-5,-24],[2,-37],[23,-78],[26,-21],[21,-2],[31,11],[44,40],[42,15],[13,28],[-2,24],[-14,29],[-17,28],[16,12],[27,-4],[25,-15],[17,-36],[13,-13],[50,-38],[18,-5],[31,11],[30,41],[24,20],[44,11],[14,7],[18,22],[59,7],[8,14],[18,6],[26,-2],[9,-12],[36,-15],[15,-2],[16,20],[21,-3],[78,-36],[13,-29],[35,-16],[-2,-61],[-11,-22],[28,-23],[26,-8],[2,-11],[-12,-17],[5,-14],[71,-11],[10,63],[14,7],[12,-5],[5,-16],[15,-2],[14,2],[5,18],[13,21],[22,10],[79,-4],[23,-12],[2,-16],[26,0],[42,-17],[24,-23],[15,0],[25,16],[26,-16],[21,0],[3,0],[52,-11],[20,-17],[6,-16],[20,0],[13,-20],[-12,-12],[-5,-24],[22,-17],[3,-14],[27,-13],[10,-25],[-13,-37],[19,-19],[7,-17],[-9,-12],[-4,-16],[20,-21],[20,-5],[15,-7],[4,-20],[-9,-19],[3,-18],[8,-10],[25,3],[11,-7],[4,-15],[-10,-19],[-83,-27],[-3,-23],[47,-8],[22,8],[15,8],[11,2],[5,-13],[-1,-13],[14,1],[11,13],[49,15],[35,-13],[23,-14],[13,-2],[13,-2],[22,13],[24,7],[12,-5],[7,-23],[21,-3],[97,-35],[25,2],[11,10],[-1,34],[11,8],[82,8],[18,-15],[9,-1],[24,19],[42,-3],[58,-13],[29,19],[15,33],[-13,32],[-25,17],[4,16],[14,10],[-3,18],[13,26],[30,28],[-6,41],[5,46],[-14,14],[19,22],[15,1],[27,25],[15,23],[-7,46],[26,38],[20,55],[33,25],[45,1],[32,-33],[23,-12],[8,-12],[5,-51],[27,-45],[4,-24],[11,-39],[10,-9],[110,34],[28,50],[30,0],[43,36],[19,36],[80,34],[45,-14],[18,-11],[14,-1],[15,0],[24,11],[23,2],[56,-37],[28,5],[18,11],[28,-7],[53,7],[28,18],[36,52],[18,7],[26,0],[5,17],[-13,16],[-9,17],[24,6],[30,-13],[45,6],[47,-23],[81,9],[32,-2],[67,-14],[31,-15],[13,-21],[3,-67],[-7,-41],[23,-29],[21,-40],[10,-32],[21,-64],[9,-26],[18,-1],[13,-13],[12,-12],[0,-13],[-16,-34],[9,-22],[27,-13],[20,-3],[10,-9],[2,-11],[3,-10],[3,-7],[75,-22],[39,26],[30,-5],[15,-9],[19,3],[39,19],[20,14],[7,14],[-1,17],[-14,22],[6,39],[50,40],[70,-6],[23,-6],[21,-18],[12,4],[35,-3],[57,-33],[8,-9],[-1,-16],[-6,-49],[52,-58],[21,-7],[75,16],[31,3],[13,-7],[8,-10],[4,-21],[40,-11],[14,4],[14,-24],[-5,-14],[3,-11],[21,-5],[23,-15],[35,-8],[23,1],[35,-39],[15,-31],[-9,-29],[35,-32],[45,-26],[28,3],[50,65],[16,10],[92,27],[50,-16],[50,2],[97,50],[30,65],[18,23],[-12,38],[41,9],[12,17],[13,0],[50,-40],[17,-3],[19,-13],[6,-22],[13,-25],[11,-10],[46,-4],[28,-16],[86,-49],[8,-17],[27,-21],[24,-5],[11,-8],[11,-18],[29,-8],[18,-17],[10,-15],[18,-18],[27,-8],[40,-40],[-3,-33],[16,-21],[19,5],[16,10],[53,-17],[32,-36],[29,-12],[24,-34],[6,-92],[-32,-41],[44,-28],[13,4],[7,20],[24,17],[15,26],[26,21],[-7,25],[0,35],[18,6],[11,-7],[3,-22],[23,-19],[55,-29],[42,0],[50,-32],[63,-25],[53,-36],[22,-52],[39,-3],[74,47],[6,18],[17,11],[22,-4],[128,27],[62,-4],[7,20],[88,33],[32,3],[38,58],[21,14],[62,1],[14,1],[36,-5],[9,-11],[-3,-72],[-9,-38],[11,-44],[17,-36],[26,-32],[34,-18],[90,-35],[39,-3],[29,8],[55,18],[21,-3],[40,-18],[4,0],[128,3],[71,5],[26,9],[-4,25],[32,21],[9,19],[18,18],[21,1],[47,-12],[7,5],[29,-10],[32,-29],[16,-23],[11,-6],[51,-6],[45,-27],[33,-40],[38,-69],[34,-28],[81,-20],[11,12],[-2,17],[12,12],[16,-1],[31,-25],[36,-30],[38,-12],[20,1],[31,11],[16,0],[26,-13],[6,-12],[-10,-35],[7,-9],[41,-27],[24,-28],[95,-36],[33,-21],[45,-15],[19,-17],[4,-27],[-17,-16],[-2,-15],[16,-16],[39,-2],[21,-11],[44,7],[22,10],[20,9],[94,3],[46,-5],[24,-4],[85,-83],[19,-25],[1,-21],[-10,-24],[-46,-18],[-37,-32],[-34,-66],[-15,-30],[0,-15],[-12,-38],[-5,-44],[13,-48],[7,-9],[24,-25],[15,-53],[9,-157],[21,-41],[26,-17],[24,-7],[59,0],[94,15],[40,-9],[30,-21],[18,-29],[23,-25],[33,-7],[38,-17],[14,-15],[2,-20],[-29,-10],[-21,-6],[-6,-21],[-19,-13],[-6,-30],[21,-37],[1,-2],[-6,-21],[-36,-19],[-54,23],[-13,-3],[-32,-45],[-32,-89],[-18,-29],[-126,-102],[-109,-163],[-32,-19],[-36,-14],[-24,-26],[-94,-85],[-16,-21],[-26,-33],[-41,-40],[-11,-10],[-77,-73],[-5,-7],[-14,-19],[-13,-47],[6,-31],[33,-60],[17,-48],[31,-36],[67,-35],[48,-18],[26,-21],[37,-19],[86,-9],[15,-2],[11,-14],[29,-46],[-3,-23],[-11,-23],[9,-21],[24,-43],[0,-25],[8,-22],[21,-15],[27,-6],[74,-81],[72,-17],[18,2],[61,8],[5,-1],[32,-5],[19,-12],[26,-48],[57,-24],[20,-6],[103,12],[59,2],[101,5],[28,28],[33,-2],[8,10],[9,13],[39,0],[17,25],[-5,24],[11,26],[-3,24],[7,7],[81,3],[33,-10],[51,-1],[48,16],[57,31],[22,12],[139,-5],[16,7],[56,27],[76,24],[33,3],[25,-4],[22,-10],[18,-22],[7,-9],[70,-182],[23,-107],[-12,-33],[-15,-5],[-6,-2],[-29,4],[-5,-3],[-51,-33],[1,-10],[1,-6],[43,-44],[126,-46],[55,-12],[3,0],[72,-42],[40,-57],[-10,-24],[17,-22],[55,-16],[64,19],[78,-10],[27,-21],[13,0],[18,13],[25,4],[50,9],[51,-1],[72,41],[33,-14],[61,-47],[2,1],[24,6],[21,32],[16,6],[24,-5],[25,-33],[29,-15],[18,4],[14,28],[15,17],[25,2],[16,-4],[26,-22],[18,-24],[18,-55],[21,-18],[31,-4],[54,32],[83,-2],[45,15],[32,1],[30,-6],[23,-11],[18,-42],[15,-20],[52,-13],[17,-4],[28,-53],[24,-15],[25,-12],[6,-12],[-2,-18],[-15,-4],[-10,-8],[4,-20],[-10,-79],[116,-183],[29,-17],[38,-13],[51,-49],[43,-41],[79,-59],[78,-36],[46,-4],[26,-9],[24,-28],[23,1],[69,-8],[64,-17],[29,-19],[56,-61],[11,-33],[0,-26],[-54,-57],[1,-11],[40,-41],[14,-30],[41,-34],[187,-120],[39,-34],[33,-40],[19,-48],[1,-88],[-3,-27],[-9,-12],[-84,-21],[-97,-14],[-47,-21],[-32,-43],[-17,-15],[-9,-7],[-44,-16],[-101,-9],[-30,-22],[-44,-15],[-43,-6],[-9,-14],[15,-9],[3,-13],[-16,-16],[17,-32],[-4,-35],[-26,-51],[8,-109],[30,-28],[60,-30],[93,-93],[76,-175],[64,-56],[35,-39],[10,-28],[4,-58],[25,-23],[26,-14],[120,-27],[28,-12],[21,-66],[21,-31],[0,-11],[-10,-14],[11,-68],[24,-21],[14,-14],[-15,-36],[-6,-40],[-9,-41],[-7,-30],[4,-95],[-35,-25],[-19,-26],[-58,-31],[-15,-20],[-10,-26],[1,-34],[0,0],[3,-82],[-16,-94],[2,-31],[-6,-35],[-28,-33],[-20,-19],[-31,-12],[-37,-5],[-113,13],[-28,16],[-29,28],[-17,5],[-27,-7],[-80,34],[-79,8],[-47,22],[-31,-13],[1,-32],[-14,-51],[-12,-16],[9,-54],[8,-13],[67,-56],[112,-63],[22,-47],[44,-16],[30,-39],[57,-52],[11,-33],[38,-60],[1,-1],[0,-22],[-15,-48],[-3,-56],[7,-117],[21,-110],[5,-78],[0,-21],[46,-121],[73,-22],[6,-91],[-9,-29],[-15,-16],[-24,-50],[-20,-11],[-4,-14],[6,-32],[-8,-88],[-7,-26],[-105,-108],[-7,-37],[20,-47],[2,-23],[-76,-92],[-19,-34],[-1,-30],[0,-4],[-34,-25],[-62,-8],[-2,-19],[8,-12],[-16,-12],[-48,-14],[-11,-20],[-25,1],[-23,-3],[-27,-13],[-20,-23],[3,-16],[-7,-26],[-23,-28],[-17,-20],[-116,-44],[-34,-76],[-104,-50],[-17,-26],[-9,-36],[-16,-26],[-22,-17],[-21,-19],[-3,-25],[24,-63],[-4,-109],[21,-37],[11,-6],[12,-16],[-2,-41],[0,0],[14,-32],[46,-43],[12,-11],[17,-25],[11,-39],[5,-101],[-22,-35],[-66,-28],[-42,-25],[-8,-30],[2,-16],[37,-59],[-35,-87],[-25,-25],[-44,-29],[-82,-38],[-35,-31],[-25,-36],[-3,-42],[16,-26],[38,-38],[4,-36],[-51,-29],[-23,-23],[-13,-28],[-17,-22],[-51,-31],[-24,-22],[-27,-57],[-13,-27],[-3,-61],[15,-28],[23,-25],[54,-8],[17,4],[31,24],[27,32],[49,19],[18,10],[10,22],[-6,27],[-15,19],[-59,75],[-2,19],[9,12],[29,10],[36,-2],[27,-19],[28,-39],[12,-37],[-7,-52],[-1,-35],[11,-27],[19,-31],[34,-33],[30,-14],[77,-16],[31,-36],[7,-51],[-21,-41],[2,-18],[16,-16],[23,4],[135,79],[18,24],[20,81],[35,23],[38,-4],[37,-26],[28,3],[17,16],[7,18],[117,-17],[54,-7],[127,42],[134,-3],[31,-15],[64,-52],[21,-1],[100,28],[34,0],[29,-1],[93,-50],[106,19],[35,41],[-3,44],[10,15],[78,27],[71,-2],[15,13],[2,20],[7,24],[58,86],[192,234],[69,29],[70,38],[21,47],[32,29],[60,44],[14,7],[63,28],[48,-1],[58,-20],[40,-67],[85,-31],[19,-14],[6,-14],[2,-64],[12,-20],[195,-130],[18,-17],[10,-26],[-5,-49],[15,-34],[-11,-73],[41,-79],[38,-7],[29,-28],[10,-27],[-5,-51],[8,-25],[1,-23],[-11,-34],[6,-19],[-4,-51],[-11,-22],[-38,-31],[-26,-61],[-26,-39],[-54,-31],[-23,-27],[-6,-21],[1,-6],[6,-85],[-28,-56],[-21,-20],[-29,-14],[-25,-52],[-27,-30],[-17,-28],[9,-36],[-22,-12],[-22,7],[-50,-37],[-8,-18],[-8,-37],[-49,-27],[-46,-58],[-1,-31],[-35,-101],[-2,-7],[-16,-27],[-25,-19],[-19,-51],[-21,-19],[-23,-41],[-4,-27],[13,-27],[-25,-33],[5,-30],[8,-52],[-4,-47],[-56,-43],[-24,-10],[-13,-11],[1,-33],[-45,-66],[-17,-18],[8,-16],[27,-2],[-15,-22],[-3,-44],[-26,-31],[-1,-33],[17,-37],[-2,-10],[-2,-14],[-17,-44],[2,-94],[-11,-17],[-16,-8],[-48,3],[-16,-7],[-23,-45],[-55,-46],[-14,-31],[4,-28],[39,-27],[8,-29],[-15,-63],[-59,-78],[-4,-51],[14,-62],[0,-59],[-23,-25],[-88,-41],[-23,-18],[-41,-46],[-17,-39],[-13,-31],[-1,-21],[9,-34],[22,-26],[5,-23],[-5,-34],[26,-79],[-3,-41],[16,-42],[17,-68],[-17,-76],[5,-21],[13,-13],[56,-11],[41,-23],[42,-39],[20,-41],[68,-71],[87,-40],[17,1],[25,-24],[1,-30],[9,-24],[52,-44],[38,-18],[73,-12],[36,-18],[52,-37],[59,-59],[34,-50],[13,-31],[40,-51],[20,-31],[-3,-17],[-32,-52],[4,-20],[38,-46],[11,-17],[5,-49],[22,-45],[19,-22],[51,-36],[17,-21],[18,-24],[31,-40],[11,-14],[1,-63],[0,-14],[17,-13],[37,1],[35,13],[40,4],[43,-39],[32,-4],[99,7],[33,-10],[0,0],[13,-5],[43,10],[26,-17],[10,-23],[15,-12],[15,-3],[65,-14],[31,-15],[57,-27],[34,-10],[243,-77],[25,-17],[2,-5],[8,-27],[8,-26],[52,-67],[1,-2],[65,-115],[12,-20],[3,-6],[53,-119],[17,-39],[-22,-27],[-61,44],[-6,4],[-102,77],[-4,2],[-6,12],[-47,99],[-41,34],[-61,-33],[-2,-2],[-37,-39],[-74,-79],[-6,-16],[-38,-103],[-46,-124],[-32,-84],[-9,-26],[-72,-192],[0,-8],[14,-547],[-55,-502],[-18,-155],[-1,-11],[-116,-4],[-198,-43],[-1,-1],[-14,-33],[-5,-10],[-2,-5],[-82,27],[-130,30],[-326,-8],[-43,-8],[-156,-27],[-115,-20],[-42,-7],[-81,-14],[-8,-2],[-91,-15],[-102,-18],[-214,-37],[-21,-4],[-46,-8],[-3,0],[-7,-1],[-56,-19],[-28,-9],[-99,-33],[-426,-141],[-86,-52],[-4,-9],[-50,-104],[-30,-42],[-80,-113],[-14,-11],[-46,-40],[-33,-28],[-59,-132],[-11,-104],[19,-107],[2,-9],[31,-86],[8,-22],[3,-8],[4,-6],[115,-157],[10,-11],[11,-14],[7,-9],[8,-60],[-13,-38],[-23,-64],[-17,-48],[-13,-34],[-3,-2],[-10,-5],[-31,-14],[-24,-12],[-5,-2],[13,-23],[10,-19],[-24,-48],[-52,-41],[-23,-17],[-56,-6],[-59,-99],[-19,-95],[-6,-32],[0,0],[-57,-114],[-48,-53],[-9,-9],[-5,-18],[-28,-97],[-6,-19],[-43,-17],[-57,9],[-5,-2],[-53,-16],[-28,-20],[-58,-40],[-24,-16],[-119,-96],[-13,-6],[-60,-31],[-9,-92],[-5,-9],[-31,-54],[-18,-50],[-31,-85],[-24,-64],[-32,-76],[-15,-34],[-45,-34],[-2,-1],[-30,-165],[-41,-88],[-56,-122],[-23,-90],[-77,-141],[-70,-26],[-2,-1],[-1,-1],[-18,-50],[32,-39],[-49,-19],[-8,-3],[-18,-14],[-93,-72],[-56,-55],[-8,-8],[-110,-108],[-27,-32],[-30,-37],[-83,-152],[-8,-66],[-59,-78],[-41,-54],[-7,-56],[-1,-4],[-5,-41],[-26,-185],[9,-39],[1,-6],[-22,-115],[-19,-95],[-12,-61],[1,-8],[22,-152],[9,-61],[7,-21],[11,-36],[33,-99],[14,-45],[43,-106],[14,-33],[14,-34],[-11,-4],[-60,-20],[-52,198],[-1,5],[-57,124],[-17,40],[-1,3],[-3,0],[-41,12],[-37,-91],[-1,-3],[-50,-72],[-32,-153],[2,-174],[-5,-12],[-66,-144],[3,-96],[1,-24],[42,-131],[31,-95],[275,-317],[22,-58],[18,-45],[16,-42],[-4,-22],[-5,-21],[-13,-57],[-16,28],[-21,38],[-28,119],[-98,91],[-72,109],[-72,36],[-63,103],[-66,-21],[1,-13],[14,-203],[-19,-119],[-34,-66],[0,0],[0,0],[19,-118],[-69,-87],[-64,-52],[-27,22],[-12,-3],[-107,-36],[-67,-75],[-14,-23],[-16,-28],[14,-57],[0,-35],[2,-41],[60,-32],[2,-1],[40,4],[42,-23],[23,-24],[2,-2],[191,-203],[83,-88],[64,-15],[49,-11],[50,-20],[2,-1],[35,-33],[56,33],[47,25],[54,-25],[12,-45],[-8,-60],[1,0],[139,-53],[206,-25],[149,14],[51,30],[6,3],[50,29],[89,51],[53,94],[24,43],[81,80],[195,348],[14,25],[30,93],[-9,10],[-60,64],[-63,-27],[-62,15],[46,51],[49,22],[80,45],[82,62],[32,24],[5,6],[6,6],[45,47],[-7,37],[83,62],[17,99],[122,46],[21,7],[36,39],[38,126],[82,63],[16,13],[111,-24],[98,6],[131,87],[84,66],[206,162],[79,27],[105,7],[16,1],[245,18],[124,49],[44,45],[84,82],[0,1],[68,126],[-2,45],[-1,35],[36,116],[163,177],[82,90],[133,201],[29,85],[-11,176],[-45,200],[12,99],[94,116],[85,50],[20,79],[233,371],[25,46],[32,38],[139,161],[77,61],[60,69],[16,80],[8,76],[196,182],[40,88],[81,178],[7,7],[153,165],[133,212],[64,60],[79,31],[141,52],[50,68],[3,5],[107,84],[40,29],[67,-5],[25,-1],[192,-12],[85,-20],[4,-24],[6,-47],[-69,-29],[-7,-3],[-5,-2],[-31,-13],[-23,-10],[-53,-181],[-25,-68],[0,-2],[47,-9],[47,25],[16,-25],[-16,-48],[-9,-33],[34,-3],[75,33],[51,54],[69,46],[25,193],[53,42],[35,73],[-16,90],[8,48],[39,4],[16,-103],[119,-15],[25,-2],[56,-4],[76,54],[63,48],[9,55],[-57,6],[-40,51],[-100,93],[-38,36],[32,42],[8,0],[42,-1],[102,-71],[46,-52],[62,-13],[9,-37],[-28,-69],[94,-67],[103,-3],[57,48],[19,82],[18,31],[92,99],[134,140],[51,46],[66,35],[122,75],[12,78],[70,50],[52,0],[169,-92],[16,-40],[-159,21],[-69,18],[-35,-45],[7,-72],[78,-12],[66,36],[34,-42],[67,-73],[75,-111],[56,-139],[59,-35],[59,-144],[13,-34],[1,-1],[34,-145],[3,-3],[51,-64],[44,-126],[59,0],[44,57],[-4,8],[-33,73],[-26,97],[-6,91],[40,49],[14,17],[3,60],[-19,70],[-3,94],[3,72],[-22,75],[35,203],[-24,87],[-105,148],[-169,112],[15,131],[67,94],[62,66],[-4,43],[-31,32],[-6,6],[66,164],[43,48],[38,42],[62,118],[102,190],[192,556],[72,129],[93,92],[37,59],[11,77],[21,84],[32,18],[48,4],[57,37],[73,184],[18,45],[46,60],[-1,10],[-3,35],[10,72],[30,23],[64,21],[75,68],[19,114],[56,28],[16,32],[38,-9],[28,-81],[50,-51],[72,-9],[44,12],[16,72],[6,126],[-23,58],[-2,52],[25,106],[19,74],[7,30],[44,33],[17,-2],[29,-4],[48,6],[67,73],[42,88],[0,0],[16,113],[-1,241],[6,129],[35,151],[92,173],[30,26],[54,-40],[35,28],[3,48],[13,56],[-19,63],[-16,143],[31,78],[22,44],[-6,54],[31,27],[41,36],[-9,42],[-44,18],[-4,21],[16,39],[77,62],[122,38],[15,-46],[-10,-45],[19,-72],[76,-3],[37,3],[82,-33],[84,-3],[50,-14],[26,-79],[23,-39],[55,-93],[88,-42],[107,42],[19,72],[-32,36],[10,108],[-30,173],[104,188],[53,32],[77,24],[37,-3],[17,-15],[21,-18],[5,3],[1,0],[0,0],[41,21],[-13,51],[18,33],[19,21],[39,4],[23,-18],[66,10],[47,21],[49,-11],[74,-42],[49,22],[5,163],[3,94],[-29,77],[-16,237],[49,136],[35,196],[57,70],[30,52],[-2,95],[17,60],[39,26],[80,21],[46,-25],[54,-42],[1,0],[32,-12],[72,-27],[73,-15],[15,-3],[37,51],[-11,45],[-23,23],[-14,114],[61,114],[6,27],[16,65],[13,56],[13,164],[14,78],[21,35],[102,54],[21,-42],[6,-65],[33,-25],[46,-99],[103,-21],[24,11],[50,46],[45,2],[64,-7],[60,-36],[44,33],[-19,84],[16,49],[30,53],[40,25],[36,-9],[28,-50],[27,-9],[35,-17],[67,10],[20,22],[43,35],[47,-3],[43,-36],[99,-13],[73,-84],[71,-117],[28,-102],[-56,-118],[-130,-134],[-7,-102],[30,-171],[79,-53],[48,4],[-5,-55],[-35,-37],[-80,-20],[-39,-38],[-13,-90],[38,-28],[59,-73],[-4,-45],[-29,-56],[-2,-71],[-61,-43],[-97,18],[-35,-66],[-90,-16],[-34,35],[-28,151],[-42,82],[-123,63],[-56,45],[-91,-12],[-54,-45],[35,-131],[6,-67],[3,-91],[-119,-34],[25,-121],[9,-104],[-19,-129],[-81,-320],[4,-119],[35,-124],[-30,-35],[216,-215],[-56,-83],[-100,-95],[-67,-26],[-68,26],[-6,72],[-60,39],[-6,90],[-56,39],[-60,63],[-75,-6],[-91,-114],[-47,-87],[53,-108],[22,-121],[44,-28],[22,-14],[72,-9],[104,-30],[39,-81],[43,-68],[28,-134],[1,-53],[-52,-78],[20,-70],[55,-62],[-12,-112],[-30,-4],[-27,37],[-67,-38],[-29,-57],[-31,-61],[-16,-28],[-28,-20],[-36,24],[-22,93],[-82,47],[-68,92],[-63,42],[-91,-39],[-47,-100],[3,-93],[53,-48],[95,0],[9,-78],[57,-24],[4,-49],[2,-101],[6,-133],[-109,-30],[-59,-16],[-67,10],[-16,81],[9,109],[-44,63],[-119,24],[-85,-22],[-43,-11],[-48,-57],[-3,-3],[5,-25],[7,-35],[-15,-49],[18,-17],[12,-12],[-49,-39],[2,-57],[-2,-193],[-75,-100],[4,-95],[-31,-97],[-13,-40],[-77,-198],[-142,-45],[-52,-17],[-125,-75],[-66,-118],[-87,-223],[-89,-89],[-30,-89],[-69,-131],[20,-234],[-7,-134],[52,-57],[82,-48],[40,-44],[23,-51],[11,-23],[12,-74],[-42,-67],[-60,-30],[-45,9],[-51,-20],[-231,-155],[-108,-102],[-47,-81],[-16,-157],[59,-72],[85,-141],[-9,-57],[32,-128],[-71,-65],[-58,8],[-131,-71],[-15,-57],[-144,-95],[-178,-88],[-155,-72],[-18,-18],[-54,-51],[-7,-6],[-52,-73],[-48,-136],[-13,-36],[-33,-141],[-32,-149],[-21,-40],[-31,-19],[-92,-37],[-171,-126],[-33,-45],[18,-47],[-46,-46],[-39,-34],[-9,-23],[-7,-15],[-2,-6],[-5,-6],[-58,-66],[-25,-63],[-8,-66],[26,-84],[1,-95],[-29,-71],[-48,-80],[-34,-58],[-103,-177],[-21,-80],[-11,-135],[-78,-332],[-66,-152],[-44,-79],[-25,-79],[-29,-48],[-63,-80],[-22,-74],[-78,-116],[-73,-123],[-15,-32],[-2,-2],[-44,-92],[0,-27],[-2,-64],[-9,-24],[-38,-93],[-1,0],[-39,-86],[-73,-120],[-30,-52],[-7,-64],[-107,-170],[-38,-55],[-6,-8],[-6,-8],[-74,-40],[-93,-74],[-8,-23],[-12,-34],[-9,-26],[-8,-23],[-139,-97],[-4,-4],[-19,-19],[-58,-57],[-14,-38],[-11,-30],[-9,-83],[-71,-146],[-20,-39],[-55,-176],[-13,-64],[-210,-375],[-38,-110],[-3,-12],[-27,-101],[-7,-143],[-52,-142],[-79,-219],[-3,-124],[2,-88],[-50,-150],[-24,-183],[-9,-66],[-54,-130],[9,-52],[9,-36],[-23,-24],[-5,1],[-23,3],[-15,-32],[-12,-27],[2,-8],[4,-12],[2,-8],[4,-15],[-35,-37],[-5,-39],[-22,-164],[1,-38],[6,-130],[-55,-197],[-4,-12],[-62,-156],[-4,-11],[-3,-8],[-22,-145],[-4,-12],[-52,-175],[-6,-21],[13,-190],[-8,-144],[-44,-142],[-2,-4],[-93,-148],[-58,-117],[-14,-29],[-20,-85],[23,-89],[-41,-62],[-58,-93],[-6,-19],[-22,-75],[-32,-110],[9,-260],[44,-230],[3,-15],[5,-12],[57,-149],[2,-4],[34,-89],[158,-341],[1,-2],[81,-251],[32,-97],[62,-192],[13,-338],[-72,-323],[-89,-231],[-268,-362],[-57,-49],[-71,-60],[-93,-79],[-16,-17],[-52,-54],[-2,-2],[-9,-9],[-1,-1],[-6,-6],[-1,-1],[-96,-43],[-172,-77],[-89,-40],[-89,-40],[-4,-2],[-47,-21],[-206,-136],[-47,-31],[-13,-9],[-138,-112],[-94,-86],[-47,-49],[-49,-51],[-8,-9],[-1,-1],[-1,-3],[-12,-30],[-5,-12],[-4,-13],[-5,-13],[-7,-15],[-26,-63],[-1,-2],[0,-30],[1,-39],[0,-17],[1,-9],[16,-38],[-70,-124],[0,0],[-7,-76],[-4,-45],[8,-33],[25,-109],[-2,-51],[-4,-111],[-1,-3],[-27,-110],[0,-1],[-43,-55],[-158,-204],[-2,-2],[-81,-134],[-3,-5],[-41,-93],[-32,-74],[-161,-548],[0,-1],[-19,-179],[-26,-243],[-8,-24],[-26,-72],[-32,-70],[-50,-76],[-55,-59],[-55,-97],[-21,-52],[-18,-54],[-15,-87],[-2,-13],[-2,-11],[-20,-120],[-20,-76],[-7,-100],[-7,-19],[-20,-58],[0,0],[-10,-137],[-60,-196],[-31,-105],[-3,-7],[-5,-17],[-25,-82],[1,-15],[0,-35],[1,-70],[15,-59],[82,-320],[1,-16],[1,-43],[3,-68],[-10,-140],[-7,-105],[1,-13],[4,-56],[6,-107],[32,-91],[2,-6],[-1,-25],[-2,-84],[35,-84],[22,-56],[76,-188],[14,-29],[37,-77],[28,-59],[23,-48],[41,-122],[4,-5],[65,-104],[1,0],[23,-28],[12,-15],[22,8],[-1,-47],[-54,-25],[-11,-12],[-28,-35],[-7,-67],[53,-7],[8,-16],[8,-18],[-61,-54],[-2,-4],[-4,-12],[-16,-45],[-7,-22],[-16,-14],[-25,-25],[-22,-127],[1,-5],[2,-65],[1,-36],[0,-4],[19,-119],[0,-1],[0,-1],[55,-186],[1,-7],[13,-103],[1,-84],[0,-2],[-18,-120],[21,-130],[-4,-10],[-43,-135],[-31,-60],[-40,-77],[-141,-275],[-21,-41],[-138,-269],[-103,-174],[-243,-413],[-118,-215],[-156,-286],[-60,-143],[-22,-52],[-35,-81],[-33,-185],[-5,-92],[16,-64],[-1,-18],[-24,-219],[-5,-109],[1,-231],[5,-177],[1,-34],[24,-139],[-50,-133],[-72,-187],[-1,-6],[-34,-165],[-5,-26],[-65,-98],[-24,-35],[-16,-24],[-8,-75],[-55,-39],[-140,-240],[-372,-525],[-1,-2],[-125,-213],[6,-57],[1,-9],[2,-15],[4,-59],[-6,-6],[-18,-18],[-53,-22],[-34,-54],[-4,-10],[-41,-123],[-21,-63],[-1,-6],[-64,-300],[-2,-18],[-23,-202],[-1,-20],[-16,-199],[-8,-122],[-28,-122],[-12,-114],[-34,-105],[-133,-316],[-15,-68],[-1,-5],[-65,-300],[0,-1],[-50,-228],[0,-2],[0,0],[0,-4],[22,-255],[0,-1],[1,0],[82,-212],[43,-81],[15,-28],[36,-66],[10,-83],[2,-15],[-21,-82],[14,-120],[1,-8],[0,0],[55,-90],[54,-88],[5,-10],[86,-286],[-5,-16],[-48,-139],[-1,-4],[-52,-129],[0,-1],[-42,-103],[-105,-205],[-15,-73],[0,0],[12,-131],[17,-55],[10,-31],[53,-96],[17,-31],[185,-220],[40,-48],[0,-1],[69,-214],[2,-5],[1,-7],[10,-37],[-3,-42],[0,-1],[-1,-24],[20,-44],[27,-61],[2,-5],[32,-2],[3,-66],[-144,-184],[-10,-33],[-90,-97],[3,-26],[-10,-11],[-26,4],[-21,15],[-4,-1],[-12,-21],[-30,-90],[25,-18],[22,29],[30,-2],[-26,-38],[-47,-26],[-71,-4],[-23,-85],[24,2],[1,-23],[-28,-1],[-18,-119],[18,-16],[15,20],[1,71],[19,1],[5,-48],[3,-22],[-29,-39],[0,-38],[0,-2],[-1,0],[-36,-2],[2,-11],[2,-11],[12,-79],[77,-234],[51,18],[43,-58],[-33,-33],[-4,-4],[-1,-1],[-7,-7],[-1,-1],[13,-19],[44,-63],[12,-17],[20,-29],[20,-28],[14,-20],[98,-78],[8,-7],[24,-18],[56,-46],[98,-109],[38,-52],[57,-80],[18,-46],[12,-33],[35,-91],[-7,-115],[28,-67],[1,-38],[0,-53],[1,-33],[-35,-215],[5,-33],[15,-107],[6,-43],[57,-130],[-41,-138],[-2,-2],[-29,-35],[-21,-67],[-15,-84],[1,-4],[8,-54],[6,-41],[1,-7],[42,-3],[-3,-90],[-37,-20],[44,-172],[-4,-22],[12,-31],[26,-61],[22,-53],[15,-52],[29,-104],[94,-190],[18,-66],[35,-134],[160,-222],[16,-20],[112,-133],[112,-133],[2,-3],[112,-95],[86,-73],[2,-2],[34,-29],[34,-29],[57,-36],[29,-19],[122,-148],[-1,-9],[-5,-35],[-12,-9],[-26,-19],[-1,-1],[-43,-11],[-120,-134],[0,-1],[-23,-49],[-20,-44],[-3,-5],[-13,-29],[-1,-3],[-11,-56],[-6,-26],[-3,-16],[-6,-29],[-20,-99],[2,-115],[23,-54],[2,-5],[7,-16],[7,-32],[2,-11],[8,-38],[1,-18],[1,-6],[0,0],[0,0],[0,-2],[3,-55],[-14,-50],[-1,-5],[1,-24],[5,-98],[2,-29],[-37,-15],[0,0],[0,-1],[-16,-138],[-5,-37],[-3,-13],[-14,-53],[-18,-67],[-23,-1],[-4,-14],[-18,-62],[-20,-27],[-47,-66],[-18,-25],[-4,-13],[-23,-76],[-5,-17],[-3,-11],[-73,-142],[-1,-3],[-32,-120],[-4,-12],[-16,-60],[-55,-201],[-1,-7],[-19,-69],[-25,-91],[-21,-101],[-11,-52],[-11,-113],[-4,-36],[0,-9],[-19,-194],[1,-44],[3,-121],[38,-82],[2,-4],[12,-97],[0,-6],[2,-15],[1,-1],[2,-19],[35,-78],[8,-16],[5,-2],[2,0],[4,-2],[13,-3],[18,-6],[13,-4],[1,-37],[-22,-26],[-17,-18],[-5,-9],[-19,-40],[-12,-25],[7,-181],[0,-6],[2,-168],[0,-4],[1,-50],[0,-2],[0,-2],[3,-119],[0,-1],[-18,-122],[8,-172],[3,-55],[6,-85],[7,-84],[3,-23],[12,-71],[58,-179],[16,-53],[1,-1],[-9,-47],[26,-42],[8,-40],[13,-45],[-15,0],[-8,0],[-168,3],[-70,1],[-44,1],[-256,5],[-26,0],[-17,1],[-66,1],[0,0],[-128,2],[-107,2],[-40,1],[-123,2],[-50,1],[-148,3],[-28,0],[-229,5],[-443,8],[-99,2],[-172,1],[-249,3],[-168,1],[-616,6],[-162,3],[-91,1],[-116,3],[-217,4],[-90,1],[-6,0],[-10,1],[-83,1],[-14,0],[-26,1],[-50,1],[-37,0],[-75,0],[-194,-1],[-154,-1],[-353,-1],[-135,0],[-150,-1],[-1,0],[-11,0],[-10,0],[-85,0],[-64,-1],[-35,0],[-37,0],[-26,-1],[-64,0],[-106,0],[-81,-1],[-161,0],[-154,-10],[-48,-3],[-75,-5],[-8,0],[-39,0],[-37,0],[-34,0],[-66,-1],[-233,0],[-27,0],[-89,0],[-9,0],[-16,0],[-43,0],[-14,0],[-11,0],[-46,0],[-170,-1],[-1,0],[-55,0],[-210,0],[-767,-2],[-57,0],[-14,0],[-55,0],[-124,0],[-196,0],[-192,0],[-121,1],[-480,4],[-443,1],[-128,0],[-127,0],[-393,1],[-130,0],[-518,1],[-260,-8],[-164,-4],[-483,-14],[-194,-7],[-71,-3],[-120,-4],[-10,0],[-371,-13],[-147,-1],[-134,-1],[-439,12],[-986,27],[-604,16],[-38,1],[-114,3],[-343,8],[-8,1],[-94,2],[-72,2],[-19,0],[-1,0],[-1,0],[-5,0],[-109,1],[-1,0],[-135,0],[-1,0],[-6,0],[-21,1],[-2,0],[-82,0],[-82,1],[-136,1],[-71,0],[-2,0],[-11,1],[-48,-1],[-107,0],[-22,0],[-45,0],[-102,0],[-43,0],[-5,0],[-111,1],[-256,4],[-1,0],[-237,7],[-43,2],[-2,0],[-3,0],[-60,-1],[-63,1],[-360,5],[-102,1],[-24,-2],[-412,7],[-374,6],[-27,2],[-247,1],[-12,-1],[-38,-1],[-156,4],[-1,0],[-373,11],[-932,21],[-56,4],[-3,0],[-468,3],[0,0],[-112,2],[-123,1],[-23,0],[-21,2],[-18,2],[-16,-1],[-249,4],[-146,2],[-377,6],[-9,0],[-110,2],[-8,0],[-387,6],[-545,13],[-7,1],[-126,4],[-67,3],[-35,1],[-173,7],[-69,3],[-19,0],[-28,-2],[-130,7],[-406,11],[-3,0],[-79,1],[-228,6],[-297,5],[-1,0],[-43,-2],[-343,3],[-195,1],[-108,1],[-110,0],[-235,-1],[-15,0],[-141,0],[-180,2],[-76,0],[-29,0],[-471,2],[-911,3],[-261,1],[-1,0],[-7,0],[-256,-2],[-118,-1],[-4,1],[-139,5],[-192,7],[-58,2],[-7,0],[-153,6],[-28,2],[-234,4],[-20,3],[-1,0],[-723,18],[-4,0],[-157,-1],[-98,-1],[-26,-5],[-118,1],[-515,4],[-283,2],[-227,-4],[-73,-1],[-76,-2],[-131,-2],[-43,-1],[-1,0],[-195,1],[-30,0],[-363,-5],[-33,-3],[-185,5],[-29,2],[-46,-4],[-389,-1],[-20,0],[-70,0],[-707,-7],[-69,1],[-1,0],[-35,0],[-148,-1],[-262,-3],[-56,0],[-270,3],[-140,2],[-2,0],[-499,6],[-59,-2],[-85,2],[-77,2],[-514,-1],[-22,0],[-159,3],[-6,0],[-84,-1],[-62,-3],[-126,2],[-1,0],[-264,3],[-59,1],[-256,3],[-7,0],[-11,0],[-31,1],[-21,0],[-41,0],[-95,2],[-63,2],[-67,1],[-56,1],[-51,1],[79,85],[2,99],[-51,161],[-21,105],[-23,122],[-22,66],[-15,14],[-98,90],[-66,144],[-30,173],[-1,8],[-89,92],[-59,62],[-27,21],[-30,25],[-31,41],[-81,146],[-19,38],[-11,51],[-3,82],[-40,151],[-13,49],[-26,75],[-80,142],[-10,71],[-24,78],[-48,61],[-39,34],[-145,84],[-144,48],[-166,38],[-220,64],[-29,9],[-92,32],[-122,27],[-8,1],[-21,3],[-96,13],[-116,34],[-111,24],[-300,68],[-60,13],[-148,25],[-113,32],[-193,70],[-186,46],[-83,21],[-125,50],[-26,10],[-18,7],[-173,120],[-103,44],[-33,2],[-82,-24],[-95,-14],[-59,8],[-101,31],[-42,22],[-28,19],[-139,97],[-122,36],[-46,28],[-37,38],[-108,175],[-90,89],[-60,45],[-125,70],[-73,-14],[-8,-2],[-20,6],[-9,6],[-117,78],[-39,45],[-13,52],[-4,49],[0,3],[-13,34],[-45,52],[-53,20],[-62,2],[-32,-26],[-45,-4],[-18,2],[-32,22],[-14,41],[0,74],[-20,48],[-24,34],[-27,22],[-60,8],[-14,44],[4,66],[31,4],[22,12],[18,36],[-2,34],[-40,37],[-83,102],[-5,32],[-10,73],[-6,134],[-17,85],[-40,139],[-2,9],[-33,189],[-10,151],[-6,96],[9,132],[-54,41],[-98,-13],[-51,28],[-14,74],[2,13],[26,141],[17,92],[4,21],[-6,24],[-46,74],[-31,81],[-15,82],[7,204],[-30,130],[-46,52],[-107,92],[-45,64],[-25,20],[-170,89],[-102,54],[-70,16],[-18,23],[-11,36],[-8,33],[-1,45],[5,47],[26,102],[0,1],[1,39],[-7,66],[-16,68],[-56,177],[-1,30],[10,83],[47,178],[1,31],[-14,92],[-8,19],[-12,31],[-38,78],[-61,94],[-14,44],[-2,172],[-1,6],[-9,59],[-138,487],[-4,14],[-57,233],[-23,93],[-2,7],[-3,12],[-8,78],[-2,17],[-14,135],[-21,188],[3,39],[-21,58],[9,56],[20,43],[1,130],[26,422],[-33,268],[-7,112],[4,69],[13,54],[23,50],[64,49],[131,57],[56,42],[5,6],[127,164],[3,4],[36,68],[23,118],[2,9],[36,116],[36,61],[23,18],[129,241],[7,102],[22,66],[41,56],[71,45],[57,49],[19,17],[139,140],[132,134],[104,110],[4,4],[98,124],[72,74],[50,69],[12,30],[26,67],[24,97],[0,25],[-10,41],[-14,25],[-28,16],[-107,6],[-23,13],[-13,20],[-2,40],[16,69],[-2,57],[-26,60],[-81,144],[-76,163],[-285,390],[-138,102],[-42,35],[-109,90],[-49,30],[-60,31],[-230,91],[-215,110],[-6,4],[-127,85],[-91,30],[-182,27],[-7,3],[-21,10],[-35,48],[-1,2],[-103,227],[-4,10],[-3,38],[22,38],[79,64],[17,23],[16,70],[55,126],[23,70],[17,99],[-5,70],[-18,68],[-15,97],[2,76],[-11,57],[-26,70],[-31,57],[-21,37],[-26,32],[-260,335],[-46,97],[-15,76],[3,46],[12,40],[16,21],[20,26],[65,52],[56,104],[57,176],[10,65],[-31,112],[-5,65],[-3,46],[7,59],[-2,136],[7,78],[-13,35],[-57,62],[-23,16],[-74,50],[-39,43],[-50,160],[-85,133],[-12,95],[3,63],[8,28],[34,77],[82,121],[22,55],[13,141],[4,52],[0,14],[-5,97],[-11,31],[-23,35],[-61,76],[-60,63],[-123,127],[-70,56],[-45,48],[-45,68],[-49,97],[4,215],[70,194],[10,64],[-7,37],[-3,16],[-9,52],[-16,27],[-75,70],[-13,34],[-20,209],[7,179],[55,291],[10,50],[-4,105],[-5,149],[11,30],[15,44],[69,99],[33,70],[13,40],[25,75],[5,29],[8,37],[-7,204],[152,504],[-3,29],[-120,156],[-85,110],[-23,31],[-13,17],[-20,108],[-7,38],[-39,68],[-61,172],[-13,86],[-36,113],[-9,83],[-17,148],[-56,89],[-29,78],[-90,101],[-76,44],[-28,25],[-14,23],[-18,30],[-128,141],[-27,150],[-30,108],[-70,120],[-100,88],[-132,76],[-55,90],[-15,38],[-37,94],[-19,34],[-53,46],[-66,37],[-9,12],[-2,2],[-75,165],[-16,123],[-4,26],[-25,46],[-112,122],[-141,178],[-24,19],[-98,74],[-145,81],[-18,22],[-42,103],[-25,45],[-154,165],[-14,30],[-6,14],[-14,61],[-42,97],[-35,52],[-37,33],[-27,23],[-42,28],[-91,35],[-48,19],[-83,32],[-81,49],[-65,8],[-133,-26],[-22,1],[-1,0],[-8,1],[-186,79],[-95,77],[-66,38],[-227,44],[-124,0],[-175,14],[-80,28],[-78,27],[-20,3],[-169,26],[-89,0],[-16,4],[-18,4],[-125,72],[-73,64],[-27,54],[-52,102],[-50,66],[-41,35],[-65,41],[-72,29],[-39,16],[-49,28],[-5,3],[-72,81],[-50,42],[-13,11],[-32,7],[-38,-18],[-17,2],[-42,23],[-57,81],[-38,30],[-25,20],[-33,50],[-52,120],[-24,74],[-23,35],[-62,60],[-34,33],[-96,94],[-56,18],[-73,-10],[-53,13],[-161,95],[-1,2],[-8,21],[1,103],[-18,119],[-15,52],[-112,150],[-8,7],[-24,20],[-120,45],[-33,4],[-246,30],[-66,36],[-80,62],[-76,58],[-78,73],[-293,121],[-150,89],[-122,89],[-157,252],[-44,36],[-8,4],[-74,37],[-80,40],[-180,146],[-79,64],[-105,46],[-37,26],[-4,12],[-8,26],[-3,91],[-1,32],[-14,60],[-38,65],[-125,174],[-39,86],[-3,73],[6,20],[60,181],[4,26],[8,71],[-10,43],[-18,33],[-91,122],[-9,46],[14,136],[-10,30],[-30,44],[-54,46],[-40,34],[-191,87],[-25,24],[-20,44],[-12,28],[-5,54],[12,40],[40,72],[88,128],[11,38],[0,18],[-35,120],[-32,82],[-92,195],[-35,35],[-105,60],[-68,38],[-109,140],[-43,75],[-88,115],[-54,49],[-41,31],[-46,35],[-1,1],[-61,30],[-49,15],[-71,1],[-39,11],[-5,1],[-88,48],[-82,57],[-35,39],[-44,30],[-32,15],[-141,28],[-34,18],[-210,114],[-5,3],[-102,96],[-5,5],[-96,125],[-39,24],[-68,25],[-140,-2],[-84,16],[-67,41],[-47,30],[-134,47],[-181,44],[-55,38],[-77,81],[-45,28],[-179,41],[-20,4],[-302,46],[-16,4],[-87,21],[-251,70],[-81,23],[-261,84],[-21,9],[-57,25],[-150,90],[-64,72],[-29,39],[-33,47],[-38,47],[-56,48],[-177,100],[-188,153],[-74,72],[-114,139],[-81,130],[-67,136],[-10,59],[7,231],[-8,39],[-6,21],[-59,83],[-38,77],[-37,144],[-6,21],[-28,53],[-15,28],[-4,5],[-30,38],[-120,107],[-89,53],[-5,3],[-151,56],[-184,32],[-90,5],[-97,-10],[-176,-17],[-136,11],[-156,27],[-52,10],[-74,30],[-67,46],[-71,21],[-28,-5],[-99,-48],[-190,-17],[-199,56],[-51,21],[-91,37],[-50,-3],[-75,-34],[-19,-1],[-25,-1],[-45,17],[-153,59],[-50,27],[-77,60],[-33,0],[-85,-29],[-90,-58],[-85,-55],[-50,-5],[-30,9],[-19,6],[-25,21],[-20,47],[4,33],[0,1],[20,45],[5,30],[-6,62],[-146,247],[-85,122],[-13,15],[-16,17],[-46,20],[-56,7],[-20,-18],[-2,-2],[-36,-55],[-42,-18],[-19,4],[-35,29],[-22,76],[-145,110],[-75,6],[-98,-12],[-45,20],[-46,39],[-22,57],[-3,45],[11,50],[37,102],[-1,87],[0,2],[-25,86],[-137,180],[-313,161],[-69,51],[-49,45],[-93,109],[-194,226],[-113,112],[-19,20],[-38,49],[-21,28],[-162,131],[-249,226],[-68,62],[-171,89],[-53,12],[-37,19],[-120,103],[-139,68],[-149,72],[-191,139],[-3,11],[-4,19],[-9,18],[-6,10],[-7,6],[-36,29],[-9,20],[8,133],[16,101],[11,68],[66,162],[57,83],[95,103],[48,81],[29,104],[20,202],[14,57],[102,159],[10,29],[-10,59],[5,30],[34,59],[5,8],[43,57],[11,40],[0,69],[-44,239],[-3,69],[-4,67],[0,1],[0,2],[27,83],[44,96],[4,36],[-9,31],[-72,127],[-58,126],[-12,50],[4,95],[7,35],[12,23],[70,45],[41,26],[45,29],[23,17],[11,20],[16,40],[26,133],[42,219],[23,115],[-2,76],[-26,129],[-7,39],[-17,87],[-2,3],[-60,123],[-19,39],[-86,55],[-17,32],[-12,41],[-4,38],[-8,84],[0,25],[0,53],[17,88],[-17,75],[-7,31],[-5,130],[16,55],[25,83],[8,23],[21,57],[26,72],[19,53],[8,34],[-2,34],[-33,79],[-2,3],[-74,87],[-112,99],[-81,51],[-18,11],[-21,13],[-71,66],[-50,62],[-61,113],[-5,9],[-13,63],[2,79],[10,39],[17,34],[113,167],[1,2],[3,4],[6,10],[90,66],[141,104],[111,118],[148,132],[101,70],[24,23],[59,91],[12,40],[1,16],[-15,35],[-30,26],[-36,56],[0,0],[-1,1],[-49,269],[-98,246],[-11,65],[-1,90],[11,83],[17,35],[41,84],[2,38],[-66,64],[-99,95],[-26,48],[-7,84],[6,89],[40,174],[23,42],[55,43],[52,57],[22,73],[9,33],[-7,42],[-23,33],[-23,55],[-23,82],[-1,139],[-36,203],[18,68],[49,59],[46,89],[0,76],[-7,34],[-6,31],[-71,94],[-34,72],[-16,110],[0,37],[11,36],[30,35],[105,36],[69,51],[111,83],[55,61],[5,6],[64,91],[235,215],[0,1],[51,69],[17,23],[64,129],[13,46],[0,2],[1,53],[-1,3],[-7,52],[-60,201],[5,48],[13,39],[82,90],[228,165],[13,16],[-7,46],[24,71],[30,49],[0,1],[53,85],[15,25],[71,76],[74,49],[85,35],[22,9],[-1,61],[-1,25],[32,73],[19,104],[-3,19],[-33,38],[-11,50],[3,42],[7,89],[5,56],[31,149],[2,66],[0,3],[-15,42],[-65,186],[-11,15],[-100,52],[-213,82],[-40,27],[-44,72],[-2,5],[-13,20],[-27,45],[-64,72],[-47,118],[-93,182],[-128,183],[-51,61],[-113,99],[-31,41],[-14,77],[-4,123],[8,32],[37,167],[-1,33],[-18,45],[-183,152],[-74,61],[-108,58],[-42,22],[-101,110],[-75,59],[-42,24],[-34,4],[-129,-11],[-58,-17],[-150,-73],[-139,-31],[-59,-1],[-89,-2],[-144,39],[-127,54],[-35,7],[-325,19],[-133,104],[-34,38],[-16,59],[22,197],[-42,91],[0,68],[6,31],[14,82],[32,94],[-6,63],[-49,108],[-18,93],[-1,61]]],"transform":{"scale":[0.00007574778959428165,0.00005583167654251892],"translate":[-92.888114,42.491983]},"objects":{"wisconsin":{"type":"GeometryCollection","geometries":[{"arcs":[[[0]],[[1]],[[2]],[[3]],[[4]],[[5]],[[6]],[[7]],[[8]],[[9]],[[10]],[[11]],[[12]],[[13]],[[14]],[[15]],[[16]],[[17]],[[18]],[[19]],[[20]],[[21]],[[22]],[[23]],[[24]],[[25]],[[26]]],"type":"MultiPolygon","properties":{"STATEFP":"55","STATENS":"01779806","AFFGEOID":"0400000US55","GEOID":"55","STUSPS":"WI","NAME":"Wisconsin","LSAD":"00","ALAND":140290039723,"AWATER":29344951758}}]}}}